STARLINK-5694
1 55481U 23015AJ  26061.16668981  .00038796  00000+0  26565-2 0  9992
2 55481  43.0001  19.9940 0000922 269.0445 348.4631 15.05449675  5817
STARLINK-5728
1 55588U 23020V   26061.16668981  .00022324  00000+0  15380-2 0  9999
2 55588  43.0000  45.2962 0000664 248.0021 349.5259 15.05456513  5615
STARLINK-6101
1 56115U 23046Y   26061.16668981  .00068490  00000+0  46582-2 0  9996
2 56115  43.0001 199.3403 0001867 297.3098 144.4462 15.05457347  5817
